{"results":[{"name_fa":"تهران","name_en":"Theran","province":{"name_fa":"تهران","name_en":"Tehran","id":27},"id":235},{"name_fa":"مشهد","name_en":"Mashhad","province":{"name_fa":"خراسان رضوی","name_en":"Razavi Khorasan","id":23},"id":204},{"name_fa":"اصفهان","name_en":"Esfahan","province":{"name_fa":"اصفهان","name_en":"Esfahan","id":5},"id":266},{"name_fa":"شیراز","name_en":"Shiraz","province":{"name_fa":"فارس","name_en":"Fars","id":6},"id":63},{"name_fa":"کرج","name_en":"karaj","province":{"name_fa":"تهران","name_en":"Tehran","id":27},"id":290},{"name_fa":"قم","name_en":"Qom","province":{"name_fa":"قم","name_en":"Qom","id":22},"id":195},{"name_fa":"گرگان","name_en":"Gorgan","province":{"name_fa":"گلستان","name_en":"Golestan","id":8},"id":78},{"name_fa":"قزوین","name_en":"Qazvin","province":{"name_fa":"قزوین","name_en":"Qazvin","id":21},"id":193},{"name_fa":"زنجان","name_en":"Zanjan","province":{"name_fa":"زنجان","name_en":"Zanjan","id":30},"id":263},{"name_fa":"تبریز","name_en":"Tabriz","province":{"name_fa":"آذربایجان شرقی","name_en":"East Azarbaijan","id":4},"id":31},{"name_fa":"اهواز","name_en":"Ahvaz","province":{"name_fa":"خوزستان","name_en":"Khuzestan","id":14},"id":136},{"name_fa":"همدان","name_en":"Hamadan","province":{"name_fa":"همدان","name_en":"Hamadan","id":9},"id":84},{"name_fa":"سنندج","name_en":"Sanandaj","province":{"name_fa":"کردستان","name_en":"Kordestan","id":16},"id":159},{"name_fa":"کاشان","name_en":"Kashan","province":{"name_fa":"اصفهان","name_en":"Esfahan","id":5},"id":38},{"name_fa":"زاهدان","name_en":"Zahedan","province":{"name_fa":"سیستان و بلوچستان","name_en":"Sistan and Baluchestan","id":25},"id":224},{"name_fa":"اردبیل","name_en":"Ardebil","province":{"name_fa":"اردبیل","name_en":"Ardebil","id":1},"id":1},{"name_fa":"اراک","name_en":"Arak","province":{"name_fa":"مرکزی","name_en":"Markazi","id":18},"id":169},{"name_fa":"نیشابور","name_en":"Neyshabur","province":{"name_fa":"خراسان رضوی","name_en":"Razavi Khorasan","id":23},"id":207},{"name_fa":"بوشهر","name_en":"Bushehr","province":{"name_fa":"بوشهر","name_en":"Bushehr","id":2},"id":7},{"name_fa":"بابل","name_en":"Babol","province":{"name_fa":"مازندران","name_en":"Mazandaran","id":19},"id":179},{"name_fa":"ساری","name_en":"Sari","province":{"name_fa":"مازندران","name_en":"Mazandaran","id":19},"id":187},{"name_fa":"رامسر","name_en":"Ramsar","province":{"name_fa":"مازندران","name_en":"Mazandaran","id":19},"id":186},{"name_fa":"آبادان","name_en":"Abadan","province":{"name_fa":"خوزستان","name_en":"Khuzestan","id":14},"id":135},{"name_fa":"کرمانشاه","name_en":"Kermanshah","province":{"name_fa":"کرمانشاه","name_en":"Kermanshah","id":13},"id":128},{"name_fa":"بروجرد","name_en":"Borujerd","province":{"name_fa":"لرستان","name_en":"Lorestan","id":17},"id":163},{"name_fa":"بیرجند","name_en":"Birjand","province":{"name_fa":"خراسان جنوبی","name_en":"South Khorasan","id":26},"id":225},{"name_fa":"رفسنجان","name_en":"Rafsanjan","province":{"name_fa":"کرمان","name_en":"Kerman","id":12},"id":120},{"name_fa":"اسکو","name_en":"Osku","province":{"name_fa":"آذربایجان شرقی","name_en":"East Azarbaijan","id":4},"id":273},{"name_fa":"سبزوار","name_en":"Sabzevar","province":{"name_fa":"خراسان رضوی","name_en":"Razavi Khorasan","id":23},"id":209},{"name_fa":"ملایر","name_en":"Malayer","province":{"name_fa":"همدان","name_en":"Hamadan","id":9},"id":86},{"name_fa":"خوی","name_en":"Khoy","province":{"name_fa":"آذربایجان غربی","name_en":"West Azarbaijan","id":28},"id":239},{"name_fa":"یزد","name_en":"Yazd","province":{"name_fa":"یزد","name_en":"Yazd","id":29},"id":257},{"name_fa":"شاهرود","name_en":"Shahrud","province":{"name_fa":"سمنان","name_en":"Semnan","id":24},"id":217},{"name_fa":"رشت","name_en":"Rasht","province":{"name_fa":"گیلان","name_en":"Gilan","id":7},"id":71},{"name_fa":"بهبهان","name_en":"Behbahan","province":{"name_fa":"خوزستان","name_en":"Khuzestan","id":14},"id":140},{"name_fa":"ارومیه","name_en":"Orumiyeh","province":{"name_fa":"آذربایجان غربی","name_en":"West Azarbaijan","id":28},"id":244},{"name_fa":"خرم آباد","name_en":"Khorramabad","province":{"name_fa":"لرستان","name_en":"Lorestan","id":17},"id":166},{"name_fa":"کرمان","name_en":"Kerman","province":{"name_fa":"کرمان","name_en":"Kerman","id":12},"id":119},{"name_fa":"اندیمشک","name_en":"Andimeshk","province":{"name_fa":"خوزستان","name_en":"Khuzestan","id":14},"id":137},{"name_fa":"گناباد","name_en":"Gonabad","province":{"name_fa":"خراسان رضوی","name_en":"Razavi Khorasan","id":23},"id":201},{"name_fa":"بهشهر","name_en":"Behshahr","province":{"name_fa":"مازندران","name_en":"Mazandaran","id":19},"id":181},{"name_fa":"آمل","name_en":"Amol","province":{"name_fa":"مازندران","name_en":"Mazandaran","id":19},"id":178},{"name_fa":"نوشهر","name_en":"Nowshahr","province":{"name_fa":"مازندران","name_en":"Mazandaran","id":19},"id":326},{"name_fa":"علی آباد کتول","name_en":"Aliabad-e-Katul","province":{"name_fa":"گلستان","name_en":"Golestan","id":8},"id":321},{"name_fa":"ایلام","name_en":"Ilam","province":{"name_fa":"ایلام","name_en":"Ilam","id":11},"id":111},{"name_fa":"سمنان","name_en":"Semnan","province":{"name_fa":"سمنان","name_en":"Semnan","id":24},"id":216},{"name_fa":"جهرم","name_en":"Jahrom","province":{"name_fa":"فارس","name_en":"Fars","id":6},"id":54},{"name_fa":"اوز","name_en":"Evaz","province":{"name_fa":"فارس","name_en":"Fars","id":6},"id":310},{"name_fa":"خرمشهر","name_en":"Khorramshahr","province":{"name_fa":"خوزستان","name_en":"Khuzestan","id":14},"id":144},{"name_fa":"بیجار","name_en":"Bijar","province":{"name_fa":"کردستان","name_en":"Kordestan","id":16},"id":154},{"name_fa":"گنبد","name_en":"Gonbad","province":{"name_fa":"گلستان","name_en":"Golestan","id":8},"id":322},{"name_fa":"گرمسار","name_en":"Garmsar","province":{"name_fa":"سمنان","name_en":"Semnan","id":24},"id":215},{"name_fa":"اردستان","name_en":"Ardestan","province":{"name_fa":"اصفهان","name_en":"Esfahan","id":5},"id":32},{"name_fa":"مبارکه","name_en":"Mobarakeh","province":{"name_fa":"اصفهان","name_en":"Esfahan","id":5},"id":43},{"name_fa":"شهرضا","name_en":"Shahreza","province":{"name_fa":"اصفهان","name_en":"Esfahan","id":5},"id":324},{"name_fa":"نطنز","name_en":"Natanz","province":{"name_fa":"اصفهان","name_en":"Esfahan","id":5},"id":44},{"name_fa":"بادرود","name_en":"Badroud","province":{"name_fa":"اصفهان","name_en":"Esfahan","id":5},"id":296},{"name_fa":"خمین","name_en":"Khomeyn","province":{"name_fa":"مرکزی","name_en":"Markazi","id":18},"id":172},{"name_fa":"تفرش","name_en":"Tafresh","province":{"name_fa":"مرکزی","name_en":"Markazi","id":18},"id":176},{"name_fa":"محلات","name_en":"Mahalat","province":{"name_fa":"مرکزی","name_en":"Markazi","id":18},"id":173},{"name_fa":"آستارا","name_en":"Astara","province":{"name_fa":"گیلان","name_en":"Gilan","id":7},"id":65},{"name_fa":"رودبار","name_en":"Rudbar","province":{"name_fa":"گیلان","name_en":"Gilan","id":7},"id":72},{"name_fa":"فومن","name_en":"Fuman","province":{"name_fa":"گیلان","name_en":"Gilan","id":7},"id":67},{"name_fa":"سیرجان","name_en":"Sirjan","province":{"name_fa":"کرمان","name_en":"Kerman","id":12},"id":122},{"name_fa":"زرند","name_en":"Zarand","province":{"name_fa":"کرمان","name_en":"Kerman","id":12},"id":123},{"name_fa":"شهربابک","name_en":"Shahrbabak","province":{"name_fa":"کرمان","name_en":"Kerman","id":12},"id":291},{"name_fa":"انار","name_en":"anar","province":{"name_fa":"کرمان","name_en":"Kerman","id":12},"id":269},{"name_fa":"داراب","name_en":"Darab","province":{"name_fa":"فارس","name_en":"Fars","id":6},"id":49},{"name_fa":"گراش","name_en":"Gerash","province":{"name_fa":"فارس","name_en":"Fars","id":6},"id":303},{"name_fa":"شوشتر","name_en":"Shushtar","province":{"name_fa":"خوزستان","name_en":"Khuzestan","id":14},"id":149},{"name_fa":"بندر ماهشهر/هندیجان","name_en":"Bandar-e-Mahshahr/Hendijan","province":{"name_fa":"خوزستان","name_en":"Khuzestan","id":14},"id":139},{"name_fa":"بندر امام خمینی","name_en":"Bandar Imam Khomeini","province":{"name_fa":"خوزستان","name_en":"Khuzestan","id":14},"id":314},{"name_fa":"تربت حیدریه","name_en":"Torbat-e-Heydarieh","province":{"name_fa":"خراسان رضوی","name_en":"Razavi Khorasan","id":23},"id":212},{"name_fa":"قوچان","name_en":"Quchan","province":{"name_fa":"خراسان رضوی","name_en":"Razavi Khorasan","id":23},"id":208},{"name_fa":"تایباد","name_en":"Taybad","province":{"name_fa":"خراسان رضوی","name_en":"Razavi Khorasan","id":23},"id":211},{"name_fa":"مریوان","name_en":"Marivan","province":{"name_fa":"کردستان","name_en":"Kordestan","id":16},"id":157},{"name_fa":"بافق","name_en":"Bafq","province":{"name_fa":"یزد","name_en":"Yazd","id":29},"id":252},{"name_fa":"بندر عباس","name_en":"Bandar-e-Abbas","province":{"name_fa":"هرمزگان","name_en":"Hormozgan","id":10},"id":91},{"name_fa":"چالوس","name_en":"Chalus","province":{"name_fa":"مازندران","name_en":"Mazandaran","id":19},"id":182},{"name_fa":"برازجان","name_en":"Borazjan","province":{"name_fa":"بوشهر","name_en":"Bushehr","id":2},"id":327},{"name_fa":"بابلسر","name_en":"Babolsar","province":{"name_fa":"مازندران","name_en":"Mazandaran","id":19},"id":180},{"name_fa":"آزادشهر","name_en":"Azadshahr","province":{"name_fa":"گلستان","name_en":"Golestan","id":8},"id":318},{"name_fa":"الیگودرز","name_en":"Aligudarz","province":{"name_fa":"لرستان","name_en":"Lorestan","id":17},"id":161},{"name_fa":"درود","name_en":"Dorud","province":{"name_fa":"لرستان","name_en":"Lorestan","id":17},"id":165},{"name_fa":"شهرکرد","name_en":"Shahr-e-Kord","province":{"name_fa":"چهارمحال و بختیاری","name_en":"Chahar Mahall and Bakhtiari","id":3},"id":19},{"name_fa":"بروجن","name_en":"Borujen","province":{"name_fa":"چهارمحال و بختیاری","name_en":"Chahar Mahall and Bakhtiari","id":3},"id":16},{"name_fa":"شیروان","name_en":"Shirvan","province":{"name_fa":"خراسان شمالی","name_en":"North Khorasan","id":20},"id":308},{"name_fa":"مانه و سملقان","name_en":"Maneh Va Samalqan","province":{"name_fa":"خراسان شمالی","name_en":"North Khorasan","id":20},"id":306},{"name_fa":"اسفراین","name_en":"Esfarayen","province":{"name_fa":"خراسان شمالی","name_en":"North Khorasan","id":20},"id":191},{"name_fa":"دامغان","name_en":"Damghan","province":{"name_fa":"سمنان","name_en":"Semnan","id":24},"id":214},{"name_fa":"قاین","name_en":"Ghayen","province":{"name_fa":"خراسان جنوبی","name_en":"South Khorasan","id":26},"id":293},{"name_fa":"ورامین","name_en":"Varamin","province":{"name_fa":"تهران","name_en":"Tehran","id":27},"id":236},{"name_fa":"چابهار","name_en":"Chahbahar","province":{"name_fa":"سیستان و بلوچستان","name_en":"Sistan and Baluchestan","id":25},"id":218},{"name_fa":"خمینی شهر","name_en":"Khomeynishahr","province":{"name_fa":"اصفهان","name_en":"Esfahan","id":5},"id":40},{"name_fa":"هشتگرد","name_en":"hashtgerd","province":{"name_fa":"تهران","name_en":"Tehran","id":27},"id":287},{"name_fa":"شهریار","name_en":"Shahriar","province":{"name_fa":"تهران","name_en":"Tehran","id":27},"id":297},{"name_fa":"لار","name_en":"Lar","province":{"name_fa":"فارس","name_en":"Fars","id":6},"id":58},{"name_fa":"ساوه","name_en":"Saveh","province":{"name_fa":"مرکزی","name_en":"Markazi","id":18},"id":174},{"name_fa":"پاکدشت","name_en":"Pakdasht","province":{"name_fa":"تهران","name_en":"Tehran","id":27},"id":231},{"name_fa":"بانه","name_en":"Baneh","province":{"name_fa":"کردستان","name_en":"Kordestan","id":16},"id":153},{"name_fa":"اردکان","name_en":"Ardakan","province":{"name_fa":"یزد","name_en":"Yazd","id":29},"id":251},{"name_fa":"شهرری","name_en":"Shahr-e-Rey","province":{"name_fa":"تهران","name_en":"Tehran","id":27},"id":284},{"name_fa":"قشم","name_en":"Qeshm","province":{"name_fa":"هرمزگان","name_en":"Hormozgan","id":10},"id":103},{"name_fa":"شهر قدس","name_en":"Qods","province":{"name_fa":"تهران","name_en":"Tehran","id":27},"id":307},{"name_fa":"شاهين شهر","name_en":"Shahin Shahr","province":{"name_fa":"اصفهان","name_en":"Esfahan","id":5},"id":311},{"name_fa":"مرودشت","name_en":"Marvdasht","province":{"name_fa":"فارس","name_en":"Fars","id":6},"id":60},{"name_fa":"تنکابن","name_en":"Tonekabon","province":{"name_fa":"مازندران","name_en":"Mazandaran","id":19},"id":189},{"name_fa":"دزفول","name_en":"Dezful","province":{"name_fa":"خوزستان","name_en":"Khuzestan","id":14},"id":142},{"name_fa":"آبدانان","name_en":"Abdanan","province":{"name_fa":"ایلام","name_en":"Ilam","id":11},"id":107},{"name_fa":"بجنورد","name_en":"Bojnurd","province":{"name_fa":"خراسان شمالی","name_en":"North Khorasan","id":20},"id":190},{"name_fa":"حاجی آباد","name_en":"Hajiabad","province":{"name_fa":"هرمزگان","name_en":"Hormozgan","id":10},"id":97},{"name_fa":"تیتکانلو","name_en":"Titkanlu","province":{"name_fa":"خراسان شمالی","name_en":"North Khorasan","id":20},"id":302},{"name_fa":"آباده","name_en":"Abadeh","province":{"name_fa":"فارس","name_en":"Fars","id":6},"id":48},{"name_fa":"ایذه","name_en":"Izeh County","province":{"name_fa":"خوزستان","name_en":"Khuzestan","id":14},"id":143},{"name_fa":"محمودآباد","name_en":"Mahmudabad","province":{"name_fa":"مازندران","name_en":"Mazandaran","id":19},"id":184},{"name_fa":"ده دشت","name_en":"dehdasht","province":{"name_fa":"کهکیلویه و بویراحمد","name_en":"Kohgiluyeh and Buyer Ahmad","id":15},"id":276},{"name_fa":"مراغه","name_en":"Maraqeh","province":{"name_fa":"آذربایجان شرقی","name_en":"East Azarbaijan","id":4},"id":27},{"name_fa":"مهریز","name_en":"Mehriz","province":{"name_fa":"یزد","name_en":"Yazd","id":29},"id":253},{"name_fa":"لنگرود","name_en":"Langrud","province":{"name_fa":"گیلان","name_en":"Gilan","id":7},"id":70},{"name_fa":"پارس آباد","name_en":"Parsabad","province":{"name_fa":"اردبیل","name_en":"Ardebil","id":1},"id":6},{"name_fa":"جیرفت","name_en":"Jiroft","province":{"name_fa":"کرمان","name_en":"Kerman","id":12},"id":117},{"name_fa":"کیش","name_en":"Kish","province":{"name_fa":"هرمزگان","name_en":"Hormozgan","id":10},"id":99},{"name_fa":"اسلامشهر","name_en":"Eslamshahr","province":{"name_fa":"تهران","name_en":"Tehran","id":27},"id":229},{"name_fa":"انديشه","name_en":"Andisheh","province":{"name_fa":"تهران","name_en":"Tehran","id":27},"id":280},{"name_fa":"نایين","name_en":"Naein","province":{"name_fa":"اصفهان","name_en":"Esfahan","id":5},"id":305},{"name_fa":"قائم شهر","name_en":"Qaemshahr","province":{"name_fa":"مازندران","name_en":"Mazandaran","id":19},"id":325},{"name_fa":"استهبان","name_en":"Estahban","province":{"name_fa":"فارس","name_en":"Fars","id":6},"id":51},{"name_fa":"گرمی","name_en":"Germi","province":{"name_fa":"اردبیل","name_en":"Ardebil","id":1},"id":3},{"name_fa":"سقز","name_en":"Saqqez","province":{"name_fa":"کردستان","name_en":"Kordestan","id":16},"id":160},{"name_fa":"طبس","name_en":"Tabas","province":{"name_fa":"یزد","name_en":"Yazd","id":29},"id":255},{"name_fa":"نسیم شهر","name_en":"Nasimshahr","province":{"name_fa":"تهران","name_en":"Tehran","id":27},"id":304},{"name_fa":"اسلام آباد غرب","name_en":"Eslamabad-e-Gharb","province":{"name_fa":"کرمانشاه","name_en":"Kermanshah","id":13},"id":124},{"name_fa":"مهاباد","name_en":"Mahabad","province":{"name_fa":"آذربایجان غربی","name_en":"West Azarbaijan","id":28},"id":240},{"name_fa":"جلفا","name_en":"Jolfa","province":{"name_fa":"آذربایجان شرقی","name_en":"East Azarbaijan","id":4},"id":317},{"name_fa":"مهدی شهر","name_en":"Mahdi Shahr","province":{"name_fa":"سمنان","name_en":"Semnan","id":24},"id":294},{"name_fa":"مشکین شهر","name_en":"meshkin shahr","province":{"name_fa":"اردبیل","name_en":"Ardebil","id":1},"id":265},{"name_fa":"گمیشان","name_en":"Gomishan","province":{"name_fa":"گلستان","name_en":"Golestan","id":8},"id":313},{"name_fa":"دماوند","name_en":"Damavand","province":{"name_fa":"تهران","name_en":"Tehran","id":27},"id":228},{"name_fa":"بویراحمد","name_en":"Boyer Ahmad","province":{"name_fa":"کهکیلویه و بویراحمد","name_en":"Kohgiluyeh and Buyer Ahmad","id":15},"id":150},{"name_fa":"رودسر","name_en":"Rudsar","province":{"name_fa":"گیلان","name_en":"Gilan","id":7},"id":73},{"name_fa":"نهاوند","name_en":"Nahavand","province":{"name_fa":"همدان","name_en":"Hamadan","id":9},"id":87},{"name_fa":"میبد","name_en":"Meybod","province":{"name_fa":"یزد","name_en":"Yazd","id":29},"id":254},{"name_fa":"بندر لنگه","name_en":"Bandar-e-Lengeh","province":{"name_fa":"هرمزگان","name_en":"Hormozgan","id":10},"id":93},{"name_fa":"زابل","name_en":"Zabol","province":{"name_fa":"سیستان و بلوچستان","name_en":"Sistan and Baluchestan","id":25},"id":223},{"name_fa":"کازرون","name_en":"Kazerun","province":{"name_fa":"فارس","name_en":"Fars","id":6},"id":55},{"name_fa":"کوهدشت","name_en":"Kuhdasht","province":{"name_fa":"لرستان","name_en":"Lorestan","id":17},"id":167}]}
